0 SL-6 R/B(2)
1 19557U 88092D   13280.28904176  .00000476  00000-0  00000+0 0  8473
2 19557 069.0766 330.2082 5845663 162.9903 336.3490 02.04120262186459
0 SL-6 R/B(2)
1 19557U 88092D   13283.09957782  .00000238  00000-0  00000+0 0  8483
2 19557 069.0779 330.0402 5845488 162.9210 241.6161 02.04124166186510
0 SL-6 R/B(2)
1 19557U 88092D   13285.60236380 -.00000046  00000-0  00000+0 0  8495
2 19557 069.0785 329.8909 5845351 162.8589 280.7681 02.04127539186565
0 SL-6 R/B(2)
1 19557U 88092D   13288.49315493 -.00000361  00000-0  00000+0 0  8500
2 19557 069.0783 329.7191 5845171 162.7861 245.0746 02.04129850186628
0 SL-6 R/B(2)
1 19557U 88092D   13290.43392084  .00000000  00000-0  10000-3 0  8524
2 19557 069.0838 329.6150 5845836 162.7317 231.2724 02.04127036186657
0 SL-6 R/B(2)
1 19557U 88092D   13292.56825019 -.00000619  00000-0  00000+0 0  8510
2 19557 069.0777 329.4776 5844942 162.6830 359.6892 02.04128253186706
